LEMUR-2-GREENBERG       
1 42837U 17042N   26068.46200528  .00019778  00000+0  72539-3 0  9997
2 42837  97.3781 249.8007 0009157   4.0119 356.1192 15.27971352473146
STARLINK-30987          
1 58487U 23186Q   26068.03122254 -.00000363  00000+0 -36555-5 0  9995
2 58487  43.0024  67.5170 0001844 288.8768  71.1883 15.27575940125783
